[
    {
        "Altitude(m)": 611965.2348782445,
        "Argument of Periapsis(deg)": 0.0,
        "Eccentricity": 0.0,
        "Inclination(deg)": 60.0,
        "Latitude(deg)": 59.14031167926505,
        "Longitude(deg)": 113.96985620793765,
        "Mean Anomaly(deg)": 81.8182,
        "RAAN(deg)": 140.0,
        "Satellite Name": "Test1 621",
        "Satellite Number": 621,
        "Semi-Major Axis(m)": 6980739.136638005,
        "Time(s)": 0
    },
    {
        "Altitude(m)": 611995.8600908138,
        "Argument of Periapsis(deg)": 0.00010418945913296404,
        "Eccentricity": 0.0,
        "Inclination(deg)": 60.0,
        "Latitude(deg)": 59.28341117732103,
        "Longitude(deg)": 115.10322357886555,
        "Mean Anomaly(deg)": 82.43830614546184,
        "RAAN(deg)": 139.99957995086024,
        "Satellite Name": "Test1 621",
        "Satellite Number": 621,
        "Semi-Major Axis(m)": 6980739.136638005,
        "Time(s)": 10
    }
]